NORAD_CAT_ID,OBJECT_NAME,OBJECT_TYPE,EPOCH,MEAN_MOTION,ECCENTRICITY,INCLINATION,RA_OF_ASC_NODE,ARG_OF_PERICENTER,MEAN_ANOMALY,BSTAR,MEAN_MOTION_DOT,MEAN_MOTION_DDOT,TLE_LINE0,TLE_LINE1,TLE_LINE2,SEMIMAJOR_AXIS,PERIOD,APOGEE,PERIGEE,DECAYED
55429.0,STARLINK-5645,PAYLOAD,2024-04-19 03:41:50,14.9833242,0.0002023,70.0033,23.1366,257.0902,103.0031,8.084e-05,8.72e-06,0.0,0 STARLINK-5645,1 55429U 23014AQ  24110.15405883  .00000872  00000-0  80840-4 0  9998,2 55429  70.0033  23.1366 0002023 257.0902 103.0031 14.98332420 67336,6950.185,96.107,573.456,570.644,0.0
55429.0,STARLINK-5645,PAYLOAD,2024-04-19 21:19:18,14.98323543,0.0002514,70.002,21.2854,242.264,117.8264,0.00040387,4.728e-05,0.0,0 STARLINK-5645,1 55429U 23014AQ  24110.88841293  .00004728  00000-0  40387-3 0  9992,2 55429  70.0020  21.2854 0002514 242.2640 117.8264 14.98323543 68386,6950.213,96.107,573.825,570.331,0.0
55429.0,STARLINK-5645,PAYLOAD,2024-04-20 03:43:49,14.98344893,0.0002889,70.0012,20.6136,249.7761,110.3087,0.00050991,5.999e-05,0.0,0 STARLINK-5645,1 55429U 23014AQ  24111.15543682  .00005999  00000-0  50991-3 0  9997,2 55429  70.0012  20.6136 0002889 249.7761 110.3087 14.98344893 67486,6950.147,96.106,574.02,570.004,0.0
55429.0,STARLINK-5645,PAYLOAD,2024-04-20 19:45:13,14.98341831,0.0003017,70.0008,18.9377,260.9197,99.1621,-0.00060535,-7.311e-05,0.0,0 STARLINK-5645,1 55429U 23014AQ  24111.82307410 -.00007311  00000-0 -60535-3 0  9995,2 55429  70.0008  18.9377 0003017 260.9197  99.1621 14.98341831 67588,6950.156,96.106,574.118,569.924,0.0
55429.0,STARLINK-5645,PAYLOAD,2024-04-20 21:21:21,14.98327171,0.0003046,70.0017,18.7664,255.7974,104.2847,-0.00036645,-4.462e-05,0.0,0 STARLINK-5645,1 55429U 23014AQ  24111.88983471 -.00004462  00000-0 -36645-3 0  9997,2 55429  70.0017  18.7664 0003046 255.7974 104.2847 14.98327171 68537,6950.202,96.107,574.184,569.95,0.0
55429.0,STARLINK-5645,PAYLOAD,2024-04-21 03:45:54,14.98311408,0.0002546,70.0019,18.0889,267.0966,92.9902,-0.00032736,-3.995e-05,0.0,0 STARLINK-5645,1 55429U 23014AQ  24112.15688637 -.00003995  00000-0 -32736-3 0  9991,2 55429  70.0019  18.0889 0002546 267.0966  92.9902 14.98311408 67633,6950.25,96.108,573.885,570.346,0.0
55429.0,STARLINK-5645,PAYLOAD,2024-04-21 19:47:13,14.98336038,0.0002334,70.0038,16.4067,256.7197,103.3702,-0.00011563,-1.472e-05,0.0,0 STARLINK-5645,1 55429U 23014AQ  24112.82446624 -.00001472  00000-0 -11563-3 0  9996,2 55429  70.0038  16.4067 0002334 256.7197 103.3702 14.98336038 67732,6950.174,96.107,573.661,570.417,0.0
55429.0,STARLINK-5645,PAYLOAD,2024-04-21 21:23:21,14.98336092,0.0002121,70.0033,16.2372,257.8028,102.2893,-6.9846e-05,-9.26e-06,0.0,0 STARLINK-5645,1 55429U 23014AQ  24112.89122495 -.00000926  00000-0 -69846-4 0  9991,2 55429  70.0033  16.2372 0002121 257.8028 102.2893 14.98336092 68687,6950.174,96.107,573.513,570.565,0.0
55429.0,STARLINK-5645,PAYLOAD,2024-04-22 03:47:51,14.98363902,0.0002514,70.0013,15.5617,275.2867,84.8006,0.00010926,1.212e-05,0.0,0 STARLINK-5645,1 55429U 23014AQ  24113.15824032  .00001212  00000-0  10926-3 0  9998,2 55429  70.0013  15.5617 0002514 275.2867  84.8006 14.98363902 67781,6950.088,96.105,573.7,570.206,0.0
55429.0,STARLINK-5645,PAYLOAD,2024-04-22 19:49:14,14.98313272,0.0002637,70.0016,13.8811,264.4456,95.6402,0.00024368,2.814e-05,0.0,0 STARLINK-5645,1 55429U 23014AQ  24113.82586746  .00002814  00000-0  24368-3 0  9993,2 55429  70.0016  13.8811 0002637 264.4456  95.6402 14.98313272 67887,6950.245,96.108,573.942,570.277,0.0
55429.0,STARLINK-5645,PAYLOAD,2024-04-23 02:13:47,14.98317037,0.0002457,70.0015,13.2076,257.5204,102.568,0.00026142,3.027e-05,0.0,0 STARLINK-5645,1 55429U 23014AQ  24114.09290601  .00003027  00000-0  26142-3 0  9994,2 55429  70.0015  13.2076 0002457 257.5204 102.5680 14.98317037 68865,6950.233,96.108,573.806,570.39,0.0
55429.0,STARLINK-5645,PAYLOAD,2024-04-23 19:51:15,14.98336584,0.000264,70.0018,11.3549,262.8922,97.1937,-8.3319e-05,-1.087e-05,0.0,0 STARLINK-5645,1 55429U 23014AQ  24114.82726401 -.00001087  00000-0 -83319-4 0  9993,2 55429  70.0018  11.3549 0002640 262.8922  97.1937 14.98336584 68033,6950.173,96.107,573.872,570.203,0.0
55429.0,STARLINK-5645,PAYLOAD,2024-04-23 21:27:23,14.98334991,0.0002647,70.0016,11.1872,261.5692,98.5167,-5.0917e-05,-7e-06,0.0,0 STARLINK-5645,1 55429U 23014AQ  24114.89402365 -.00000700  00000-0 -50917-4 0  9999,2 55429  70.0016  11.1872 0002647 261.5692  98.5167 14.98334991 68989,6950.177,96.107,573.882,570.203,0.0
55429.0,STARLINK-5645,PAYLOAD,2024-04-24 02:15:47,14.98339802,0.0002649,70.0018,10.6822,261.2102,98.8757,-3.884e-05,-5.56e-06,0.0,0 STARLINK-5645,1 55429U 23014AQ  24115.09429902 -.00000556  00000-0 -38840-4 0  9998,2 55429  70.0018  10.6822 0002649 261.2102  98.8757 14.98339802 69014,6950.163,96.106,573.869,570.186,0.0
55429.0,STARLINK-5645,PAYLOAD,2024-04-24 19:53:16,14.98327007,0.0002663,70.0031,8.8329,216.6537,143.444,4.4183e-05,4.34e-06,0.0,0 STARLINK-5645,1 55429U 23014AQ  24115.82866157  .00000434  00000-0  44183-4 0  9996,2 55429  70.0031   8.8329 0002663 216.6537 143.4440 14.98327007 68189,6950.202,96.107,573.918,570.216,0.0
55429.0,STARLINK-5645,PAYLOAD,2024-04-24 21:29:24,14.98324961,0.0002742,70.0032,8.664,215.4464,144.6513,5.4122e-05,5.53e-06,0.0,0 STARLINK-5645,1 55429U 23014AQ  24115.89542252  .00000553  00000-0  54122-4 0  9996,2 55429  70.0032   8.6640 0002742 215.4464 144.6513 14.98324961 69134,6950.208,96.107,573.979,570.168,0.0
55429.0,STARLINK-5645,PAYLOAD,2024-04-25 02:17:48,14.98326096,0.0002578,70.0014,8.1559,262.4225,97.6641,4.5731e-05,4.53e-06,0.0,0 STARLINK-5645,1 55429U 23014AQ  24116.09570477  .00000453  00000-0  45731-4 0  9994,2 55429  70.0014   8.1559 0002578 262.4225  97.6641 14.98326096 69165,6950.205,96.107,573.862,570.278,0.0
55429.0,STARLINK-5645,PAYLOAD,2024-04-25 19:55:16,14.98336046,0.0002932,70.0006,6.3044,263.4346,96.6479,6.3885e-05,6.69e-06,0.0,0 STARLINK-5645,1 55429U 23014AQ  24116.83005585  .00000669  00000-0  63885-4 0  9998,2 55429  70.0006   6.3044 0002932 263.4346  96.6479 14.98336046 68336,6950.174,96.107,574.077,570.001,0.0
55429.0,STARLINK-5645,PAYLOAD,2024-04-25 21:31:24,14.98336484,0.0002861,70.0009,6.1364,261.3747,98.7088,6.2067e-05,6.48e-06,0.0,0 STARLINK-5645,1 55429U 23014AQ  24116.89681542  .00000648  00000-0  62067-4 0  9995,2 55429  70.0009   6.1364 0002861 261.3747  98.7088 14.98336484 69285,6950.173,96.107,574.026,570.049,0.0
55429.0,STARLINK-5645,PAYLOAD,2024-04-26 02:19:48,14.98343864,0.0002715,70.001,5.6314,257.1622,102.9233,0.00012302,1.376e-05,0.0,0 STARLINK-5645,1 55429U 23014AQ  24117.09708771  .00001376  00000-0  12302-3 0  9997,2 55429  70.0010   5.6314 0002715 257.1622 102.9233 14.98343864 68378,6950.15,96.106,573.902,570.128,0.0
55429.0,STARLINK-5645,PAYLOAD,2024-04-26 10:20:29,14.9833475,0.0001804,70.0036,4.7907,293.0643,67.0326,-1.7237e-05,-2.98e-06,0.0,0 STARLINK-5645,1 55429U 23014AQ  24117.43089894 -.00000298  00000-0 -17237-4 0  9990,2 55429  70.0036   4.7907 0001804 293.0643  67.0326 14.98334750 68428,6950.178,96.107,573.297,570.789,0.0
55429.0,STARLINK-5645,PAYLOAD,2024-04-26 23:09:33,14.98339432,0.0003103,70.0001,3.444,263.14,96.9406,7.7831e-05,8.36e-06,0.0,0 STARLINK-5645,1 55429U 23014AQ  24117.96496791  .00000836  00000-0  77831-4 0  9998,2 55429  70.0001   3.4440 0003103 263.1400  96.9406 14.98339432 69446,6950.164,96.106,574.185,569.872,0.0
55429.0,STARLINK-5645,PAYLOAD,2024-04-27 02:21:49,14.98339777,0.0002906,70.0005,3.1072,262.7333,97.3496,0.00011373,1.265e-05,0.0,0 STARLINK-5645,1 55429U 23014AQ  24118.09848635  .00001265  00000-0  11373-3 0  9996,2 55429  70.0005   3.1072 0002906 262.7333  97.3496 14.98339777 68522,6950.163,96.106,574.047,570.008,0.0
55429.0,STARLINK-5645,PAYLOAD,2024-04-27 19:59:19,14.98328727,0.0002921,70.0007,1.2562,262.2441,97.8387,-0.00019417,-2.409e-05,0.0,0 STARLINK-5645,1 55429U 23014AQ  24118.83286143 -.00002409  00000-0 -19417-3 0  9998,2 55429  70.0007   1.2562 0002921 262.2441  97.8387 14.98328727 68638,6950.197,96.107,574.092,570.032,0.0
55429.0,STARLINK-5645,PAYLOAD,2024-04-27 21:35:27,14.9832881,0.0003026,70.0002,1.0872,263.1844,96.8971,-0.00020658,-2.557e-05,0.0,0 STARLINK-5645,1 55429U 23014AQ  24118.89962178 -.00002557  00000-0 -20658-3 0  9996,2 55429  70.0002   1.0872 0003026 263.1844  96.8971 14.98328810 69585,6950.197,96.107,574.165,569.958,0.0
55429.0,STARLINK-5645,PAYLOAD,2024-04-28 02:23:51,14.98329871,0.0002952,70.0002,0.5817,262.924,97.1584,-0.00018363,-2.283e-05,0.0,0 STARLINK-5645,1 55429U 23014AQ  24119.09990064 -.00002283  00000-0 -18363-3 0  9990,2 55429  70.0002   0.5817 0002952 262.9240  97.1584 14.98329871 69618,6950.193,96.107,574.11,570.007,0.0
55429.0,STARLINK-5645,PAYLOAD,2024-04-28 20:01:20,14.98325992,0.0002958,69.9997,358.7283,269.1888,90.8932,-4.7684e-05,-6.62e-06,0.0,0 STARLINK-5645,1 55429U 23014AQ  24119.83426086 -.00000662  00000-0 -47684-4 0  9998,2 55429  69.9997 358.7283 0002958 269.1888  90.8932 14.98325992 68780,6950.205,96.107,574.126,570.014,0.0
55429.0,STARLINK-5645,PAYLOAD,2024-04-28 21:37:28,14.98326212,0.000293,70.0,358.5606,269.3834,90.6989,-3.9306e-05,-5.62e-06,0.0,0 STARLINK-5645,1 55429U 23014AQ  24119.90102074 -.00000562  00000-0 -39306-4 0  9995,2 55429  70.0000 358.5606 0002930 269.3834  90.6989 14.98326212 69730,6950.205,96.107,574.106,570.033,0.0
55429.0,STARLINK-5645,PAYLOAD,2024-04-29 08:50:23,14.98344994,0.0002926,70.0,357.3826,267.0312,93.0513,-0.00024323,-2.995e-05,0.0,0 STARLINK-5645,1 55429U 23014AQ  24120.36833317 -.00002995  00000-0 -24323-3 0  9992,2 55429  70.0000 357.3826 0002926 267.0312  93.0513 14.98344994 68862,6950.147,96.106,574.045,569.978,0.0
55429.0,STARLINK-5645,PAYLOAD,2024-04-29 21:39:28,14.9832846,0.0002945,69.9997,356.0356,268.9874,91.0948,0.00012268,1.371e-05,0.0,0 STARLINK-5645,1 55429U 23014AQ  24120.90241567  .00001371  00000-0  12268-3 0  9992,2 55429  69.9997 356.0356 0002945 268.9874  91.0948 14.98328460 68941,6950.198,96.107,574.109,570.016,0.0
